SENTINEL-2B             
1 42063U 17013A   23081.48026752  .00000293  00000+0  12834-3 0  9999
2 42063  98.5677 157.2422 0001345 107.3602 252.7728 14.30823947315524
ZHUHAI-1 02 (CAS-4B)    
1 42759U 17034B   23081.59219421  .00011335  00000+0  59614-3 0  9999
2 42759  43.0169 236.4798 0011565 265.6100 137.8628 15.15614713318493
NUSAT-3 (MILANESAT)     
1 42760U 17034C   23081.45433297  .00013428  00000+0  68159-3 0  9994
2 42760  43.0139 229.9512 0013285 285.7078 174.2775 15.16728023318568
ZHUHAI-1 01 (CAS-4A)    
1 42761U 17034D   23081.48992235  .00011762  00000+0  61645-3 0  9992
2 42761  43.0166 235.6151 0012398 265.9748 198.0964 15.15701367318486
CARTOSAT-2E             
1 42767U 17036C   23081.20807000  .00009763  00000+0  46660-3 0  9993
2 42767  97.4155 142.4684 0007311 132.1681 305.9172 15.19193225318537
FORMOSAT-5              
1 42920U 17049A   23080.88051679  .00000341  00000+0  97568-4 0  9991
2 42920  98.3268 159.1923 0012082 116.3445 243.8963 14.50901562295095
SENTINEL-5P             
1 42969U 17064A   23081.46475003  .00000174  00000+0  10367-3 0  9992
2 42969  98.7623  22.7434 0001040 100.8319 259.2974 14.19510055281769
SKYSAT-C11              
1 42987U 17068A   23080.90997653  .00024901  00000+0  60651-3 0  9999
2 42987  97.3116 203.6988 0002718  89.0750 271.0808 15.40909226301055
SKYSAT-C10              
1 42988U 17068B   23080.81358964  .00025949  00000+0  63245-3 0  9991
2 42988  97.3169 204.0294 0002370  71.1860 288.9644 15.40882528301068
SKYSAT-C9               
1 42989U 17068C   23081.31003631  .00026592  00000+0  64731-3 0  9992
2 42989  97.3096 203.4540 0000678 192.6798 167.4432 15.40917036301332
SKYSAT-C8               
1 42990U 17068D   23081.32472381  .00026919  00000+0  65427-3 0  9993
2 42990  97.3185 204.9785 0000147  96.0328 264.0936 15.40961616301164
SKYSAT-C7               
1 42991U 17068E   23080.90173935  .00024953  00000+0  60641-3 0  9999
2 42991  97.3185 204.6660 0003214  84.0193 276.1420 15.40976061301105
SKYSAT-C6               
1 42992U 17068F   23080.89318188  .00025393  00000+0  61788-3 0  9991
2 42992  97.3209 205.1146 0002582 103.5421 256.6113 15.40935380301118
CARTOSAT-2F             
1 43111U 18004A   23081.44663439  .00012518  00000+0  59768-3 0  9990
2 43111  97.4097 142.4073 0004122 154.7876 333.4801 15.19178530287757
NUSAT-4 (ADA)           
1 43195U 18015D   23081.48334771  .00044455  00000+0  10284-2 0  9996
2 43195  97.5633 234.0249 0012413 143.0258 288.3504 15.42267732285874
NUSAT-5 (MARYAM)        
1 43204U 18015K   23081.45413670  .00047342  00000+0  10663-2 0  9999
2 43204  97.5644 234.8160 0011649 143.5897 293.6238 15.43065686285510
GAOFEN 1-02             
1 43259U 18031A   23081.43037439  .00001835  00000+0  27020-3 0  9993
2 43259  97.8694 156.6030 0003926 167.2718 192.8575 14.76552239268165
GAOFEN 1-03             
1 43260U 18031B   23081.40841500  .00001859  00000+0  27351-3 0  9997
2 43260  97.8688 156.5335 0003756 258.4544 101.6228 14.76584728268158
GAOFEN 1-04             
1 43262U 18031D   23081.45164615  .00001876  00000+0  27590-3 0  9993
2 43262  97.8697 156.6358 0003577 195.3518 164.7563 14.76573455268154
SENTINEL-3B             
1 43437U 18039A   23080.88789217  .00000217  00000+0  10782-3 0  9995
2 43437  98.6206 149.2170 0001385 109.6403 250.4927 14.26740889255390
GAOFEN 5-01             
1 43461U 18043A   23080.45379643  .00000889  00000+0  20225-3 0  9996
2 43461  98.3021  24.8849 0002680 125.2718 234.8732 14.58309641259028
GAOFEN 6                
1 43484U 18048A   23081.41880389  .00001671  00000+0  24699-3 0  9996
2 43484  97.9025 161.3820 0010085  33.1467 327.0359 14.76501351258856
GAOFEN 11-1             
1 43585U 18063A   23081.51010417  .00011201  00000+0  47262-3 0  9994
2 43585  97.2872 155.3673 0012182 271.4280 270.2947 15.23386231258729
AEOLUS                  
1 43600U 18066A   23081.28959128  .00181522  00000+0  67725-3 0  9990
2 43600  96.7236  87.9596 0009334 109.3009 250.9275 15.87453062265186
ICESAT-2                
1 43613U 18070A   23081.21427946  .00019114  00000+0  69356-3 0  9999
2 43613  92.0014 333.0164 0005631  16.3252 343.8177 15.28256149251799
HYSIS                   
1 43719U 18096A   23081.35378663  .00002039  00000+0  28540-3 0  9998
2 43719  97.9218 148.7944 0002153  36.4139 323.7226 14.78636942232626
KAZSTSAT                
1 43783U 18099AB  23081.14403753  .00001644  00000+0  15665-3 0  9993
2 43783  97.5908 143.0666 0009128  66.2853 293.9325 14.94673117234275
SAUDISAT 5A             
1 43831U 18102A   23081.51123074  .00004568  00000+0  27697-3 0  9994
2 43831  97.4626 153.1487 0012213 306.6838 178.2386 15.10984916236131
SAUDISAT 5B             
1 43833U 18102C   23081.51668824  .00004562  00000+0  27283-3 0  9998
2 43833  97.4650 154.3692 0013150 312.8391 171.8219 15.11479437236193
GAOFEN 10R              
1 44622U 19066A   23081.50639478  .00003021  00000+0  39299-3 0  9996
2 44622  97.9199  21.9232 0003039 149.6459 210.4890 14.81393010187163
CARTOSAT-3              
1 44804U 19081A   23081.45273794  .00006209  00000+0  29627-3 0  9999
2 44804  97.3584 141.7106 0010768 321.9656 163.5881 15.19373521183845
GAOFEN 12-1             
1 44819U 19082A   23081.34573827  .00000977  00000+0  13418-3 0  9991
2 44819  97.8471 100.8141 0001540  80.9320 279.2065 14.80532694179056
CSG-1                   
1 44873U 19092A   23081.46946304  .00001170  00000+0  15351-3 0  9993
2 44873  97.8858 266.1974 0001313  84.7944 275.3431 14.82164919176286
NUSAT-7 (SOPHIE)        
1 45017U 20003B   23081.40224627  .00041717  00000+0  83877-3 0  9998
2 45017  97.1731 143.2675 0010175  82.3228 337.1266 15.46459550177977
NUSAT-8 (MARIE)         
1 45018U 20003C   23081.42611435  .00059778  00000+0  96253-3 0  9996
2 45018  97.1864 147.0924 0007788  79.0745 343.5294 15.52735236178122
NUSAT-6 (HYPATIA)       
1 46272U 20061A   23081.23634336  .00020335  00000+0  67214-3 0  9999
2 46272  97.2990 151.6851 0007441 159.4771 200.6771 15.31369765141629
NEMO-HD                 
1 46277U 20061F   23081.44322889  .00006477  00000+0  30576-3 0  9996
2 46277  97.3558 150.2464 0000232  80.6385  43.3523 15.19773770141041
NUSAT-12 (DOROTHY)      
1 46827U 20079A   23081.43732816  .00060175  00000+0  96994-3 0  9991
2 46827  97.1575 152.4285 0004703  16.7310  38.3258 15.52725820132969
NUSAT-9 (ALICE)         
1 46828U 20079B   23081.44294392  .00066784  00000+0  10228-2 0  9992
2 46828  97.1456 151.9089 0002538  91.1010 332.5626 15.54126142133022
NUSAT-11 (CORA)         
1 46829U 20079C   23081.57671988  .00065089  00000+0  10010-2 0  9993
2 46829  97.1519 152.5494 0003450  40.2663  69.5012 15.54015329133034
NUSAT-15 (KATHERINE)    
1 46830U 20079D   23081.40291293  .00063547  00000+0  99017-3 0  9996
2 46830  97.1657 154.0398 0001591  27.0531 102.2506 15.53663436133018
NUSAT-14 (HEDY)         
1 46831U 20079E   23081.51504808  .00067863  00000+0  10021-2 0  9990
2 46831  97.1611 154.2387 0004340   2.6594 122.2987 15.55117683133062
NUSAT-10 (CAROLINE)     
1 46832U 20079F   23081.59145288  .00055228  00000+0  91433-3 0  9991
2 46832  97.1648 153.4328 0004222  34.5212  71.5517 15.52001519133016
NUSAT-13 (EMMY)         
1 46833U 20079G   23081.38182969  .00052817  00000+0  89154-3 0  9994
2 46833  97.1631 153.0875 0004733  41.5379  88.8179 15.51464490132970
NUSAT-17 (MARY)         
1 46835U 20079J   23081.55859792  .00055582  00000+0  93125-3 0  9995
2 46835  97.1639 152.9725 0004913  48.1833  59.2324 15.51661069132986
NUSAT-18 (VERA)         
1 46836U 20079K   23081.42566547  .00059305  00000+0  95280-3 0  9996
2 46836  97.1647 153.5490 0005111  52.9603  75.7454 15.52818482133006
NUSAT-16 (LISE)         
1 46840U 20079P   23081.54999405  .00062782  00000+0  98442-3 0  9993
2 46840  97.1697 154.0088 0002615  58.1592  61.0620 15.53490622133024
SENTINEL-6              
1 46984U 20086A   23081.39124151 -.00000061  00000+0  00000+0 0  9993
2 46984  66.0421  71.7351 0008131 266.9396  93.0691 12.80930224108963
GAOFEN 12-2             
1 48079U 21026A   23081.38220202  .00001155  00000+0  15760-3 0  9995
2 48079  97.9180  72.8754 0001605  81.4879 278.6509 14.80515762106740
PLEIADES NEO 3          
1 48268U 21034A   23081.55704381 -.00000077  00000+0 -31165-5 0  9991
2 48268  97.8932 157.2944 0000985 112.5381 247.5948 14.81672570102534
NUSAT-19 (ROSALIND)     
1 48905U 21059AC  23081.47810810  .00020556  00000+0  81571-3 0  9998
2 48905  97.5361 216.1264 0009684 181.1451 247.2945 15.25345183 96341
NUSAT-22 (SOFYA)        
1 48919U 21059AS  23081.44523674  .00047521  00000+0  10565-2 0  9994
2 48919  97.3814 218.7468 0011391 128.3843 302.6218 15.43454612 97222
NUSAT-21 (ELISA)        
1 48920U 21059AT  23081.42146120  .00059520  00000+0  10969-2 0  9991
2 48920  97.3758 219.4128 0010238 134.6216 298.7729 15.48894730 97311
NUSAT-20 (GRACE)        
1 48921U 21059AU  23081.46640432  .00054721  00000+0  10927-2 0  9993
2 48921  97.3882 219.7142 0013185 153.4521 280.1534 15.46559875 97271
PLEIADES NEO 4          
1 49070U 21073E   23081.38820056 -.00000203  00000+0 -19147-4 0  9991
2 49070  97.8929 157.1230 0000817  93.6353 266.4965 14.81672080 86223
LANDSAT 9               
1 49260U 21088A   23081.15840884  .00000751  00000+0  17656-3 0  9992
2 49260  98.1926 152.5046 0001114  84.4525 275.6801 14.57125251 78711
CSG-2                   
1 51444U 22008A   23081.36822689  .00000950  00000+0  12588-3 0  9998
2 51444  97.8886 266.0985 0001511  80.5451 279.5999 14.82156720 61387
INS-2TD                 
1 51658U 22013C   23081.54822761  .00020348  00000+0  95695-3 0  9995
2 51658  97.5523  93.5353 0008037 321.1217  38.9439 15.19577827 60814
GAOFEN 12-3             
1 52912U 22069A   23081.30313610  .00002975  00000+0  39000-3 0  9996
2 52912  97.9627 332.0943 0002418  34.0793 326.0553 14.81090612 39598
SWOT                    
1 54754U 22173A   23081.05239656  .00000283  00000+0  16250-3 0  9999
2 54754  77.6060 194.8992 0000948 217.1939 142.9152 14.09855464 13462
